NORAD_CAT_ID,OBJECT_NAME,OBJECT_TYPE,EPOCH,MEAN_MOTION,ECCENTRICITY,INCLINATION,RA_OF_ASC_NODE,ARG_OF_PERICENTER,MEAN_ANOMALY,BSTAR,MEAN_MOTION_DOT,MEAN_MOTION_DDOT,TLE_LINE0,TLE_LINE1,TLE_LINE2,SEMIMAJOR_AXIS,PERIOD,APOGEE,PERIGEE,DECAYED
55747.0,STARLINK-5539,PAYLOAD,2024-08-05 20:17:15,14.98328545,0.0003084,69.9996,269.0356,270.2704,89.8102,-2.2792e-05,-3.65e-06,0.0,0 STARLINK-5539,1 55747U 23028G   24218.84531482 -.00000365  00000-0 -22792-4 0  9997,2 55747  69.9996 269.0356 0003084 270.2704  89.8102 14.98328545 79032,6950.197,96.107,574.206,569.919,0.0
55747.0,STARLINK-5539,PAYLOAD,2024-08-06 12:18:36,14.98318141,0.0003059,69.9988,267.353,265.9886,94.0923,-9.8119e-05,-1.263e-05,0.0,0 STARLINK-5539,1 55747U 23028G   24219.51292615 -.00001263  00000-0 -98119-4 0  9998,2 55747  69.9988 267.3530 0003059 265.9886  94.0923 14.98318141 79133,6950.23,96.108,574.221,569.968,0.0
55747.0,STARLINK-5539,PAYLOAD,2024-08-06 13:54:44,14.98318647,0.0003067,69.9987,267.1841,266.919,93.1618,-8.9299e-05,-1.158e-05,0.0,0 STARLINK-5539,1 55747U 23028G   24219.57968602 -.00001158  00000-0 -89299-4 0  9992,2 55747  69.9987 267.1841 0003067 266.9190  93.1618 14.98318647 79146,6950.228,96.108,574.225,569.961,0.0
55747.0,STARLINK-5539,PAYLOAD,2024-08-07 04:19:57,14.98327,0.0003365,69.9982,265.6694,271.094,88.9834,-5.9002e-05,-7.97e-06,0.0,0 STARLINK-5539,1 55747U 23028G   24220.18052106 -.00000797  00000-0 -59002-4 0  9991,2 55747  69.9982 265.6694 0003365 271.0940  88.9834 14.98327000 79236,6950.202,96.107,574.406,569.728,0.0
55747.0,STARLINK-5539,PAYLOAD,2024-08-07 12:20:36,14.98331335,0.0003254,69.9985,264.8285,268.3957,91.683,3.0572e-05,2.72e-06,0.0,0 STARLINK-5539,1 55747U 23028G   24220.51431645  .00000272  00000-0  30572-4 0  9994,2 55747  69.9985 264.8285 0003254 268.3957  91.6830 14.98331335 79288,6950.189,96.107,574.315,569.792,0.0
55747.0,STARLINK-5539,PAYLOAD,2024-08-08 12:22:37,14.98322545,0.0002953,69.999,262.3035,257.3837,102.6991,0.00040292,4.717e-05,0.0,0 STARLINK-5539,1 55747U 23028G   24221.51571327  .00004717  00000-0  40292-3 0  9994,2 55747  69.9990 262.3035 0002953 257.3837 102.6991 14.98322545 79431,6950.216,96.107,574.133,570.029,0.0
55747.0,STARLINK-5539,PAYLOAD,2024-08-09 12:24:38,14.98334342,0.0003255,69.9986,259.7789,267.7183,92.3603,4.3972e-05,4.32e-06,0.0,0 STARLINK-5539,1 55747U 23028G   24222.51711310  .00000432  00000-0  43972-4 0  9992,2 55747  69.9986 259.7789 0003255 267.7183  92.3603 14.98334342 79586,6950.179,96.107,574.307,569.782,0.0
55747.0,STARLINK-5539,PAYLOAD,2024-08-10 12:26:39,14.98335958,0.0003098,69.999,257.2536,267.0843,92.9962,3.3399e-05,3.06e-06,0.0,0 STARLINK-5539,1 55747U 23028G   24223.51850924  .00000306  00000-0  33399-4 0  9990,2 55747  69.9990 257.2536 0003098 267.0843  92.9962 14.98335958 79730,6950.174,96.107,574.193,569.886,0.0
55747.0,STARLINK-5539,PAYLOAD,2024-08-11 02:51:52,14.98327514,0.0002991,69.999,255.7379,268.7804,91.3013,1.893e-05,1.33e-06,0.0,0 STARLINK-5539,1 55747U 23028G   24224.11935366  .00000133  00000-0  18930-4 0  9993,2 55747  69.9990 255.7379 0002991 268.7804  91.3013 14.98327514 79823,6950.201,96.107,574.144,569.987,0.0
55747.0,STARLINK-5539,PAYLOAD,2024-08-11 18:53:12,14.98340312,0.0003069,69.999,254.0549,267.3037,92.7771,-0.00013036,-1.649e-05,0.0,0 STARLINK-5539,1 55747U 23028G   24224.78694915 -.00001649  00000-0 -13036-3 0  9994,2 55747  69.9990 254.0549 0003069 267.3037  92.7771 14.98340312 79922,6950.161,96.106,574.159,569.893,0.0
55747.0,STARLINK-5539,PAYLOAD,2024-08-12 09:18:24,14.98336915,0.0003179,69.9985,252.5392,271.9906,88.0889,0.00011457,1.274e-05,0.0,0 STARLINK-5539,1 55747U 23028G   24225.38778465  .00001274  00000-0  11457-3 0  9991,2 55747  69.9985 252.5392 0003179 271.9906  88.0889 14.98336915 80017,6950.172,96.107,574.246,569.827,0.0
55747.0,STARLINK-5539,PAYLOAD,2024-08-12 18:55:12,14.98331994,0.0003097,69.9984,251.5292,264.6192,95.4614,0.00023342,2.693e-05,0.0,0 STARLINK-5539,1 55747U 23028G   24225.78834447  .00002693  00000-0  23342-3 0  9990,2 55747  69.9984 251.5292 0003097 264.6192  95.4614 14.98331994 80075,6950.187,96.107,574.204,569.899,0.0
55747.0,STARLINK-5539,PAYLOAD,2024-08-13 04:32:01,14.9832538,0.0002887,69.999,250.5196,267.5832,92.4997,2.8661e-05,2.49e-06,0.0,0 STARLINK-5539,1 55747U 23028G   24226.18891183  .00000249  00000-0  28661-4 0  9990,2 55747  69.9990 250.5196 0002887 267.5832  92.4997 14.98325380 80133,6950.207,96.107,574.079,570.066,0.0
55747.0,STARLINK-5539,PAYLOAD,2024-08-13 09:20:26,14.98324721,0.0002894,69.9991,250.0149,266.7729,93.3099,1.554e-05,9.2e-07,0.0,0 STARLINK-5539,1 55747U 23028G   24226.38919274  .00000092  00000-0  15540-4 0  9992,2 55747  69.9991 250.0149 0002894 266.7729  93.3099 14.98324721 80165,6950.209,96.107,574.086,570.063,0.0
55747.0,STARLINK-5539,PAYLOAD,2024-08-14 04:34:03,14.98322636,0.0002974,69.9992,247.9953,266.7132,93.3686,-9.364e-05,-1.21e-05,0.0,0 STARLINK-5539,1 55747U 23028G   24227.19031898 -.00001210  00000-0 -93640-4 0  9991,2 55747  69.9992 247.9953 0002974 266.7132  93.3686 14.98322636 80289,6950.216,96.107,574.148,570.014,0.0
55747.0,STARLINK-5539,PAYLOAD,2024-08-14 10:58:36,14.98320162,0.0002816,69.9992,247.3219,268.6613,91.4223,-0.00012297,-1.56e-05,0.0,0 STARLINK-5539,1 55747U 23028G   24227.45736297 -.00001560  00000-0 -12297-3 0  9991,2 55747  69.9992 247.3219 0002816 268.6613  91.4223 14.98320162 80321,6950.223,96.108,574.045,570.131,0.0
55747.0,STARLINK-5539,PAYLOAD,2024-08-14 18:59:16,14.98321375,0.0003047,69.9984,246.4791,265.6241,94.457,-5.42e-05,-7.4e-06,0.0,0 STARLINK-5539,1 55747U 23028G   24227.79116135 -.00000740  00000-0 -54200-4 0  9991,2 55747  69.9984 246.4791 0003047 265.6241  94.4570 14.98321375 80378,6950.22,96.108,574.202,569.967,0.0
55747.0,STARLINK-5539,PAYLOAD,2024-08-15 04:36:04,14.98321673,0.0003135,69.9981,245.469,270.3378,89.7422,4.2255e-05,4.11e-06,0.0,0 STARLINK-5539,1 55747U 23028G   24228.19172031  .00000411  00000-0  42255-4 0  9993,2 55747  69.9981 245.4690 0003135 270.3378  89.7422 14.98321673 80435,6950.219,96.108,574.263,569.905,0.0
55747.0,STARLINK-5539,PAYLOAD,2024-08-15 09:24:28,14.98325438,0.0003164,69.9982,244.9641,270.573,89.5067,3.2666e-05,2.97e-06,0.0,0 STARLINK-5539,1 55747U 23028G   24228.39199913  .00000297  00000-0  32666-4 0  9990,2 55747  69.9982 244.9641 0003164 270.5730  89.5067 14.98325438 80461,6950.207,96.107,574.271,569.873,0.0
55747.0,STARLINK-5539,PAYLOAD,2024-08-15 19:01:15,14.98339067,0.0003078,69.9986,243.9542,268.9661,91.1146,0.0002215,2.551e-05,0.0,0 STARLINK-5539,1 55747U 23028G   24228.79254536  .00002551  00000-0  22150-3 0  9998,2 55747  69.9986 243.9542 0003078 268.9661  91.1146 14.98339067 80529,6950.165,96.106,574.169,569.891,0.0
55747.0,STARLINK-5539,PAYLOAD,2024-08-16 09:26:27,14.98347384,0.0003119,69.9984,242.439,270.4352,89.6449,0.0003535,4.129e-05,0.0,0 STARLINK-5539,1 55747U 23028G   24229.39337315  .00004129  00000-0  35350-3 0  9991,2 55747  69.9984 242.4390 0003119 270.4352  89.6449 14.98347384 80612,6950.139,96.106,574.172,569.836,0.0
55747.0,STARLINK-5539,PAYLOAD,2024-08-17 04:40:05,14.98330327,0.0003041,70.0001,240.4247,255.2594,104.8228,0.0001171,1.304e-05,0.0,0 STARLINK-5539,1 55747U 23028G   24230.19450476  .00001304  00000-0  11710-3 0  9991,2 55747  70.0001 240.4247 0003041 255.2594 104.8228 14.98330327 80734,6950.192,96.107,574.17,569.943,0.0
55747.0,STARLINK-5539,PAYLOAD,2024-08-17 11:04:38,14.98327001,0.0002935,69.9992,239.7464,273.8879,86.1944,-4.3104e-05,-6.07e-06,0.0,0 STARLINK-5539,1 55747U 23028G   24230.46155253 -.00000607  00000-0 -43104-4 0  9996,2 55747  69.9992 239.7464 0002935 273.8879  86.1944 14.98327001 80771,6950.202,96.107,574.107,570.027,0.0
55747.0,STARLINK-5539,PAYLOAD,2024-08-18 04:42:06,14.9833618,0.0002858,69.9995,237.895,274.4357,85.6475,-0.00022996,-2.836e-05,0.0,0 STARLINK-5539,1 55747U 23028G   24231.19590958 -.00002836  00000-0 -22996-3 0  9993,2 55747  69.9995 237.8950 0002858 274.4357  85.6475 14.98336180 80888,6950.174,96.107,574.025,570.052,0.0
55747.0,STARLINK-5539,PAYLOAD,2024-08-18 11:06:38,14.98336247,0.0002721,69.9998,237.2225,266.7748,93.31,-0.00019776,-2.452e-05,0.0,0 STARLINK-5539,1 55747U 23028G   24231.46294720 -.00002452  00000-0 -19776-3 0  9997,2 55747  69.9998 237.2225 0002721 266.7748  93.3100 14.98336247 80927,6950.174,96.107,573.93,570.147,0.0
55747.0,STARLINK-5539,PAYLOAD,2024-08-19 09:32:31,14.98323484,0.0002912,69.9994,234.8645,271.3847,88.6978,6.4927e-05,6.82e-06,0.0,0 STARLINK-5539,1 55747U 23028G   24232.39758884  .00000682  00000-0  64927-4 0  9996,2 55747  69.9994 234.8645 0002912 271.3847  88.6978 14.98323484 81061,6950.213,96.107,574.102,570.054,0.0
55747.0,STARLINK-5539,PAYLOAD,2024-08-20 07:58:24,14.98330711,0.0003007,69.9992,232.5075,270.9948,89.0867,8.7701e-05,9.54e-06,0.0,0 STARLINK-5539,1 55747U 23028G   24233.33222527  .00000954  00000-0  87701-4 0  9998,2 55747  69.9992 232.5075 0003007 270.9948  89.0867 14.98330711 81203,6950.191,96.107,574.146,569.966,0.0
55747.0,STARLINK-5539,PAYLOAD,2024-08-21 09:36:33,14.98328918,0.0002944,69.9994,229.8147,270.7599,89.3222,3.4589e-05,3.2e-06,0.0,0 STARLINK-5539,1 55747U 23028G   24234.40038848  .00000320  00000-0  34589-4 0  9991,2 55747  69.9994 229.8147 0002944 270.7599  89.3222 14.98328918 81364,6950.196,96.107,574.107,570.015,0.0
